[
  {
    "COMMENT": "GENERATED VIA SPACETRACK.ORG API",
    "ORIGINATOR": "18 SPCS",
    "NORAD_CAT_ID": "43437",
    "OBJECT_NAME": "SENTINEL 3B",
    "OBJECT_TYPE": "PAYLOAD",
    "CLASSIFICATION_TYPE": "U",
    "INTLDES": "18039A",
    "EPOCH": "2023-08-28 17:08:08",
    "EPOCH_MICROSECONDS": "386080",
    "MEAN_MOTION": "14.26742188",
    "ECCENTRICITY": "0.000132",
    "INCLINATION": "98.6226",
    "RA_OF_ASC_NODE": "306.7888",
    "ARG_OF_PERICENTER": "84.678",
    "MEAN_ANOMALY": "275.4551",
    "EPHEMERIS_TYPE": "0",
    "ELEMENT_SET_NO": "999",
    "REV_AT_EPOCH": "27818",
    "BSTAR": "0.000075208",
    "MEAN_MOTION_DOT": "0.00000138",
    "MEAN_MOTION_DDOT": "0",
    "FILE": "3991628",
    "TLE_LINE0": "0 SENTINEL 3B",
    "TLE_LINE1": "1 43437U 18039A   23240.71398595  .00000138  00000-0  75208-4 0  9998",
    "TLE_LINE2": "2 43437  98.6226 306.7888 0001320  84.6780 275.4551 14.26742188278183",
    "OBJECT_ID": "2018-039A",
    "OBJECT_NUMBER": "43437",
    "SEMIMAJOR_AXIS": "7180.778",
    "PERIOD": "100.929",
    "APOGEE": "803.591",
    "PERIGEE": "801.695",
    "DECAYED": "0"
  },
  {
    "COMMENT": "GENERATED VIA SPACETRACK.ORG API",
    "ORIGINATOR": "18 SPCS",
    "NORAD_CAT_ID": "43437",
    "OBJECT_NAME": "SENTINEL 3B",
    "OBJECT_TYPE": "PAYLOAD",
    "CLASSIFICATION_TYPE": "U",
    "INTLDES": "18039A",
    "EPOCH": "2023-08-29 01:33:04",
    "EPOCH_MICROSECONDS": "380192",
    "MEAN_MOTION": "14.26742288",
    "ECCENTRICITY": "0.0001315",
    "INCLINATION": "98.6225",
    "RA_OF_ASC_NODE": "307.1343",
    "ARG_OF_PERICENTER": "84.7308",
    "MEAN_ANOMALY": "275.4023",
    "EPHEMERIS_TYPE": "0",
    "ELEMENT_SET_NO": "999",
    "REV_AT_EPOCH": "27823",
    "BSTAR": "0.000075174",
    "MEAN_MOTION_DOT": "0.00000138",
    "MEAN_MOTION_DDOT": "0",
    "FILE": "3991728",
    "TLE_LINE0": "0 SENTINEL 3B",
    "TLE_LINE1": "1 43437U 18039A   23241.06463403  .00000138  00000-0  75174-4 0  9990",
    "TLE_LINE2": "2 43437  98.6225 307.1343 0001315  84.7308 275.4023 14.26742288278235",
    "OBJECT_ID": "2018-039A",
    "OBJECT_NUMBER": "43437",
    "SEMIMAJOR_AXIS": "7180.778",
    "PERIOD": "100.929",
    "APOGEE": "803.587",
    "PERIGEE": "801.698",
    "DECAYED": "0"
  },
  {
    "COMMENT": "GENERATED VIA SPACETRACK.ORG API",
    "ORIGINATOR": "18 SPCS",
    "NORAD_CAT_ID": "43437",
    "OBJECT_NAME": "SENTINEL 3B",
    "OBJECT_TYPE": "PAYLOAD",
    "CLASSIFICATION_TYPE": "U",
    "INTLDES": "18039A",
    "EPOCH": "2023-08-29 18:22:56",
    "EPOCH_MICROSECONDS": "364096",
    "MEAN_MOTION": "14.26742537",
    "ECCENTRICITY": "0.0001305",
    "INCLINATION": "98.6225",
    "RA_OF_ASC_NODE": "307.8252",
    "ARG_OF_PERICENTER": "84.1518",
    "MEAN_ANOMALY": "275.9811",
    "EPHEMERIS_TYPE": "0",
    "ELEMENT_SET_NO": "999",
    "REV_AT_EPOCH": "27833",
    "BSTAR": "0.000077525",
    "MEAN_MOTION_DOT": "0.00000144",
    "MEAN_MOTION_DDOT": "0",
    "FILE": "3992439",
    "TLE_LINE0": "0 SENTINEL 3B",
    "TLE_LINE1": "1 43437U 18039A   23241.76593014  .00000144  00000-0  77525-4 0  9998",
    "TLE_LINE2": "2 43437  98.6225 307.8252 0001305  84.1518 275.9811 14.26742537278335",
    "OBJECT_ID": "2018-039A",
    "OBJECT_NUMBER": "43437",
    "SEMIMAJOR_AXIS": "7180.777",
    "PERIOD": "100.929",
    "APOGEE": "803.579",
    "PERIGEE": "801.705",
    "DECAYED": "0"
  },
  {
    "COMMENT": "GENERATED VIA SPACETRACK.ORG API",
    "ORIGINATOR": "18 SPCS",
    "NORAD_CAT_ID": "43437",
    "OBJECT_NAME": "SENTINEL 3B",
    "OBJECT_TYPE": "PAYLOAD",
    "CLASSIFICATION_TYPE": "U",
    "INTLDES": "18039A",
    "EPOCH": "2023-08-30 04:28:51",
    "EPOCH_MICROSECONDS": "546144",
    "MEAN_MOTION": "14.2674269",
    "ECCENTRICITY": "0.0001297",
    "INCLINATION": "98.6224",
    "RA_OF_ASC_NODE": "308.2398",
    "ARG_OF_PERICENTER": "84.0325",
    "MEAN_ANOMALY": "276.1003",
    "EPHEMERIS_TYPE": "0",
    "ELEMENT_SET_NO": "999",
    "REV_AT_EPOCH": "27839",
    "BSTAR": "0.000078245",
    "MEAN_MOTION_DOT": "0.00000146",
    "MEAN_MOTION_DDOT": "0",
    "FILE": "3992840",
    "TLE_LINE0": "0 SENTINEL 3B",
    "TLE_LINE1": "1 43437U 18039A   23242.18670771  .00000146  00000-0  78245-4 0  9993",
    "TLE_LINE2": "2 43437  98.6224 308.2398 0001297  84.0325 276.1003 14.26742690278397",
    "OBJECT_ID": "2018-039A",
    "OBJECT_NUMBER": "43437",
    "SEMIMAJOR_AXIS": "7180.776",
    "PERIOD": "100.929",
    "APOGEE": "803.573",
    "PERIGEE": "801.710",
    "DECAYED": "0"
  },
  {
    "COMMENT": "GENERATED VIA SPACETRACK.ORG API",
    "ORIGINATOR": "18 SPCS",
    "NORAD_CAT_ID": "43437",
    "OBJECT_NAME": "SENTINEL 3B",
    "OBJECT_TYPE": "PAYLOAD",
    "CLASSIFICATION_TYPE": "U",
    "INTLDES": "18039A",
    "EPOCH": "2023-08-30 19:37:44",
    "EPOCH_MICROSECONDS": "315328",
    "MEAN_MOTION": "14.26742889",
    "ECCENTRICITY": "0.0001297",
    "INCLINATION": "98.6224",
    "RA_OF_ASC_NODE": "308.8617",
    "ARG_OF_PERICENTER": "83.2157",
    "MEAN_ANOMALY": "276.9171",
    "EPHEMERIS_TYPE": "0",
    "ELEMENT_SET_NO": "999",
    "REV_AT_EPOCH": "27848",
    "BSTAR": "0.000077296",
    "MEAN_MOTION_DOT": "0.00000143",
    "MEAN_MOTION_DDOT": "0",
    "FILE": "3993321",
    "TLE_LINE0": "0 SENTINEL 3B",
    "TLE_LINE1": "1 43437U 18039A   23242.81787402  .00000143  00000-0  77296-4 0  9995",
    "TLE_LINE2": "2 43437  98.6224 308.8617 0001297  83.2157 276.9171 14.26742889278485",
    "OBJECT_ID": "2018-039A",
    "OBJECT_NUMBER": "43437",
    "SEMIMAJOR_AXIS": "7180.776",
    "PERIOD": "100.929",
    "APOGEE": "803.572",
    "PERIGEE": "801.709",
    "DECAYED": "0"
  },
  {
    "COMMENT": "GENERATED VIA SPACETRACK.ORG API",
    "ORIGINATOR": "18 SPCS",
    "NORAD_CAT_ID": "43437",
    "OBJECT_NAME": "SENTINEL 3B",
    "OBJECT_TYPE": "PAYLOAD",
    "CLASSIFICATION_TYPE": "U",
    "INTLDES": "18039A",
    "EPOCH": "2023-08-31 19:11:33",
    "EPOCH_MICROSECONDS": "37152",
    "MEAN_MOTION": "14.26743277",
    "ECCENTRICITY": "0.0001269",
    "INCLINATION": "98.6222",
    "RA_OF_ASC_NODE": "309.8291",
    "ARG_OF_PERICENTER": "82.8316",
    "MEAN_ANOMALY": "277.3009",
    "EPHEMERIS_TYPE": "0",
    "ELEMENT_SET_NO": "999",
    "REV_AT_EPOCH": "27862",
    "BSTAR": "0.000077824",
    "MEAN_MOTION_DOT": "0.00000145",
    "MEAN_MOTION_DDOT": "0",
    "FILE": "3994074",
    "TLE_LINE0": "0 SENTINEL 3B",
    "TLE_LINE1": "1 43437U 18039A   23243.79968793  .00000145  00000-0  77824-4 0  9996",
    "TLE_LINE2": "2 43437  98.6222 309.8291 0001269  82.8316 277.3009 14.26743277278626",
    "OBJECT_ID": "2018-039A",
    "OBJECT_NUMBER": "43437",
    "SEMIMAJOR_AXIS": "7180.774",
    "PERIOD": "100.929",
    "APOGEE": "803.551",
    "PERIGEE": "801.728",
    "DECAYED": "0"
  },
  {
    "COMMENT": "GENERATED VIA SPACETRACK.ORG API",
    "ORIGINATOR": "18 SPCS",
    "NORAD_CAT_ID": "43437",
    "OBJECT_NAME": "SENTINEL 3B",
    "OBJECT_TYPE": "PAYLOAD",
    "CLASSIFICATION_TYPE": "U",
    "INTLDES": "18039A",
    "EPOCH": "2023-08-31 19:11:33",
    "EPOCH_MICROSECONDS": "37152",
    "MEAN_MOTION": "14.26743277",
    "ECCENTRICITY": "0.0001269",
    "INCLINATION": "98.6222",
    "RA_OF_ASC_NODE": "309.8291",
    "ARG_OF_PERICENTER": "82.8316",
    "MEAN_ANOMALY": "277.3009",
    "EPHEMERIS_TYPE": "0",
    "ELEMENT_SET_NO": "999",
    "REV_AT_EPOCH": "27862",
    "BSTAR": "0.000077824",
    "MEAN_MOTION_DOT": "0.00000145",
    "MEAN_MOTION_DDOT": "0",
    "FILE": "3994105",
    "TLE_LINE0": "0 SENTINEL 3B",
    "TLE_LINE1": "1 43437U 18039A   23243.79968793  .00000145  00000-0  77824-4 0  9996",
    "TLE_LINE2": "2 43437  98.6222 309.8291 0001269  82.8316 277.3009 14.26743277278626",
    "OBJECT_ID": "2018-039A",
    "OBJECT_NUMBER": "43437",
    "SEMIMAJOR_AXIS": "7180.774",
    "PERIOD": "100.929",
    "APOGEE": "803.551",
    "PERIGEE": "801.728",
    "DECAYED": "0"
  }
]